ORBCOMM FM20            
1 25416U 98046D   24364.05820855  .00002713  00000+0  96317-3 0  9998
2 25416  44.9937 266.5807 0000772  28.6563 331.4327 14.36517780379831
ORBCOMM FM16            
1 25417U 98046E   24363.54703763  .00003855  00000+0  13102-2 0  9998
2 25417  44.9933 262.6526 0003401 145.4429 214.6641 14.37939403379689
ORBCOMM FM15            
1 25418U 98046F   24364.10846748  .00003294  00000+0  11335-2 0  9996
2 25418  44.9966 264.6503 0002951 149.8065 210.2954 14.37626125379937
ORBCOMM FM14            
1 25419U 98046G   24363.81812888  .00003261  00000+0  11163-2 0  9995
2 25419  44.9954 264.7128 0002076 127.7916 232.3120 14.37917276379904
ORBCOMM FM13            
1 25420U 98046H   24363.79462834  .00003220  00000+0  11262-2 0  9991
2 25420  44.9973 271.2585 0003990 129.9737 230.1461 14.36871024379855
ORBCOMM FM21            
1 25475U 98053A   24364.46320461  .00003029  00000+0  10668-2 0  9999
2 25475  45.0094 352.8686 0001353 318.7545  41.3201 14.36658681373169
ORBCOMM FM22            
1 25476U 98053B   24363.43079231  .00003713  00000+0  12755-2 0  9991
2 25476  45.0085 353.8588 0001704  29.0868 331.0074 14.37487700372699
ORBCOMM FM23            
1 25477U 98053C   24363.50807783  .00003351  00000+0  11728-2 0  9998
2 25477  45.0091 359.7055 0001266 357.6878   2.3964 14.36761599372848
